ONEWEB-0043             
1 45149U 20008U   24040.48680513 -.00000537  00000+0 -15747-2 0  9990
2 45149  87.8917 206.8464 0001815 113.4087 246.7231 13.10372361195720
ONEWEB-0044             
1 45150U 20008V   24040.51607644  .00000509  00000+0  14209-2 0  9999
2 45150  87.8919 206.8375 0001665 108.9820 251.1488 13.10375683196020
ONEWEB-0047             
1 45152U 20008X   24040.50794480  .00000183  00000+0  48692-3 0  9997
2 45152  87.8921 206.8407 0001510 100.2770 259.8528 13.10375999195747
ONEWEB-0048             
1 45153U 20008Y   24040.50305121 -.00000092  00000+0 -29858-3 0  9992
2 45153  87.8923 206.8547 0001563  99.7182 260.4122 13.10374284195353
ONEWEB-0049             
1 45154U 20008Z   24040.50469190 -.00000025  00000+0 -10830-3 0  9996
2 45154  87.8929 206.8290 0001280 117.5992 242.5266 13.10376896195574
ONEWEB-0051             
1 45155U 20008AA  24040.44076088 -.00000461  00000+0 -13376-2 0  9991
2 45155  87.8993 191.7800 0001434  93.3523 266.7769 13.11415777198535
ONEWEB-0052             
1 45156U 20008AB  24040.50144145 -.00000174  00000+0 -53452-3 0  9990
2 45156  87.8921 206.8107 0001388 122.7854 237.3407 13.10376737195482
